{
    "links": {
        "self": "http://www.neowsapp.com/rest/v1/neo/3666682?api_key=iIulBulltgU6a56xZRHN4H3l9WmuAYTsLGpBGhQ2"
    },
    "id": "3666682",
    "neo_reference_id": "3666682",
    "name": "(2014 FM38)",
    "designation": "2014 FM38",
    "nasa_jpl_url": "http://ssd.jpl.nasa.gov/sbdb.cgi?sstr=3666682",
    "absolute_magnitude_h": 25.1,
    "estimated_diameter": {
        "kilometers": {
            "estimated_diameter_min": 0.0253837029,
            "estimated_diameter_max": 0.0567596853
        },
        "meters": {
            "estimated_diameter_min": 25.3837029364,
            "estimated_diameter_max": 56.7596852866
        },
        "miles": {
            "estimated_diameter_min": 0.0157726969,
            "estimated_diameter_max": 0.0352688224
        },
        "feet": {
            "estimated_diameter_min": 83.279867942,
            "estimated_diameter_max": 186.2194458756
        }
    },
    "is_potentially_hazardous_asteroid": false,
    "close_approach_data": [
        {
            "close_approach_date": "1938-04-10",
            "close_approach_date_full": "1938-Apr-10 22:16",
            "epoch_date_close_approach": -1001209440000,
            "relative_velocity": {
                "kilometers_per_second": "28.1626363196",
                "kilometers_per_hour": "101385.4907506147",
                "miles_per_hour": "62997.0011833472"
            },
            "miss_distance": {
                "astronomical": "0.4673008882",
                "lunar": "181.7800455098",
                "kilometers": "69907217.523828134",
                "miles": "43438330.7071468892"
            },
            "orbiting_body": "Earth"
        },
        {
            "close_approach_date": "2014-03-18",
            "close_approach_date_full": "2014-Mar-18 03:30",
            "epoch_date_close_approach": 1395113400000,
            "relative_velocity": {
                "kilometers_per_second": "14.9927106362",
                "kilometers_per_hour": "53973.7582901508",
                "miles_per_hour": "33537.1944220106"
            },
            "miss_distance": {
                "astronomical": "0.0366121211",
                "lunar": "14.2421151079",
                "kilometers": "5477095.332742057",
                "miles": "3403309.2262201066"
            },
            "orbiting_body": "Earth"
        }
    ],
    "orbital_data": {
        "orbit_id": "5",
        "orbit_determination_date": "2017-04-06 08:41:52",
        "first_observation_date": "2014-03-28",
        "last_observation_date": "2014-03-29",
        "data_arc_in_days": 1,
        "observations_used": 24,
        "orbit_uncertainty": "9",
        "minimum_orbit_intersection": ".0355317",
        "jupiter_tisserand_invariant": "4.302",
        "epoch_osculation": "2456745.5",
        "eccentricity": ".5064474438346178",
        "semi_major_axis": "1.53301971987555",
        "inclination": "14.02165454515892",
        "ascending_node_longitude": "4.908355476828751",
        "orbital_period": "693.2981462429653",
        "perihelion_distance": ".7566258013965159",
        "perihelion_argument": "97.02414529785287",
        "aphelion_distance": "2.309413638354584",
        "perihelion_time": "2456683.888881396545",
        "mean_anomaly": "31.99201211980574",
        "mean_motion": ".519257121847025",
        "equinox": "J2000",
        "orbit_class": {
            "orbit_class_type": "APO",
            "orbit_class_description": "Near-Earth asteroid orbits which cross the Earth’s orbit similar to that of 1862 Apollo",
            "orbit_class_range": "a (semi-major axis) > 1.0 AU; q (perihelion) < 1.017 AU"
        }
    },
    "is_sentry_object": false
}